ESTCUBE 1               
1 39161U 13021C   22128.74934187  .00001139  00000+0  18549-3 0  9998
2 39161  97.9083 207.0180 0009052 181.8360 178.2803 14.72857403483622
FENGYUN 3C              
1 39260U 13052A   22128.55636319  .00000080  00000+0  61285-4 0  9997
2 39260  98.4581 158.6832 0011851  35.2356 324.9609 14.15917970446270
CASSIOPE                
1 39265U 13055A   22128.58060748  .00014808  00000+0  39412-3 0  9994
2 39265  80.9636 309.6020 0627125  76.3670 290.6519 14.37788683446608
ZACUBE-1 (TSHEPISOSAT)  
1 39417U 13066B   22128.40374689  .00001547  00000+0  19502-3 0  9992
2 39417  97.6339 101.7224 0058027 174.2908 185.8980 14.82176381457199
CINEMA-3 (KHUSAT-2)     
1 39426U 13066L   22128.39842481  .00001361  00000+0  21664-3 0  9996
2 39426  97.7964  70.0773 0103662   5.0985 355.1251 14.70069854453386
TRITON-1                
1 39427U 13066M   22128.75785006  .00002039  00000+0  32495-3 0  9993
2 39427  97.8108  66.2876 0113188  32.3033 328.5039 14.68806211453145
DELFI-N3XT              
1 39428U 13066N   22128.54570700  .00003285  00000+0  51151-3 0  9998
2 39428  97.8124  64.6298 0119332  46.0169 315.0802 14.68915334452676
GOMX-1                  
1 39430U 13066Q   22128.70828035  .00000907  00000+0  17020-3 0  9991
2 39430  97.8120  38.1768 0149609 169.6721 190.7619 14.60072892450496
BRITE-PL1 (LEM)         
1 39431U 13066R   22128.55064462  .00000317  00000+0  77412-4 0  9998
2 39431  97.7063 345.7960 0201501 352.7656   7.0641 14.47315340446791
ICUBE-1                 
1 39432U 13066S   22128.53944132  .00002582  00000+0  25902-3 0  9990
2 39432  97.4690 134.3906 0032252  40.5295 319.8317 14.91761975458754
HUMSAT-D                
1 39433U 13066T   22128.77415321  .00004035  00000+0  37955-3 0  9996
2 39433  97.4519 142.1439 0029777  15.9497 344.2654 14.94079855460471
VELOX-PII               
1 39438U 13066Y   22128.44379014  .00001167  00000+0  15973-3 0  9992
2 39438  97.6892  92.8752 0068343 226.0518 133.5043 14.78776658455092
FIRST-MOVE              
1 39439U 13066Z   22128.49158657  .00003002  00000+0  35520-3 0  9996
2 39439  97.6351 104.0429 0063466 169.7500 190.5026 14.83877891456121
CUBEBUG-2 (LO-74)       
1 39440U 13066AA  22128.41595408  .00001455  00000+0  20447-3 0  9991
2 39440  97.7231  87.6685 0077262 261.3045  97.9409 14.76884272454376
NEE-02 KRYSAOR          
1 39441U 13066AB  22128.38440593  .00001098  00000+0  16027-3 0  9994
2 39441  97.7340  84.8453 0079125 274.9129  84.3051 14.75653538454127
FUNCUBE-1 (AO-73)       
1 39444U 13066AE  22128.51667510  .00001817  00000+0  22239-3 0  9993
2 39444  97.6220 104.2310 0057268 162.4102 197.9114 14.83218255455608
HINCUBE                 
1 39445U 13066AF  22128.49567308  .00001750  00000+0  21543-3 0  9998
2 39445  97.6235 104.0354 0057263 164.6138 195.6834 14.83029140455549
UWE-3                   
1 39446U 13066AG  22128.43918730  .00001367  00000+0  18318-3 0  9992
2 39446  97.6825  94.2453 0067725 218.7822 140.8519 14.79427651454545
AIST-1 (RS-41)          
1 39492U 13078C   22128.79010100  .00001096  00000+0  11546-3 0  9994
2 39492  82.4167 274.5614 0018344 235.7084 124.2401 14.88361944453885
SPROUT                  
1 39770U 14029E   22128.84544429  .00006174  00000+0  63896-3 0  9999
2 39770  97.9351 245.5631 0007887 212.9739 147.0877 14.90413107431766
UNISAT-6                
1 40012U 14033C   22128.49113668  .00001044  00000+0  15946-3 0  9997
2 40012  97.6631 318.5918 0056202 288.9772  70.5353 14.74786060424099
BUGSAT-1 (TITA)         
1 40014U 14033E   22128.55483657  .00002721  00000+0  24276-3 0  9993
2 40014  98.1424 125.3411 0031245 166.5711 193.6337 14.96523040430179
DUCHIFAT-1              
1 40021U 14033M   22128.38879736  .00003593  00000+0  35474-3 0  9999
2 40021  98.0095  77.8797 0012815 165.3789 194.7802 14.92564161428724
NANOSATC-BR1            
1 40024U 14033Q   22128.36349669  .00002730  00000+0  27847-3 0  9994
2 40024  97.9828  71.4320 0012005 171.5986 188.5435 14.91462866428002
QB50P1                  
1 40025U 14033R   22128.78053638  .00002374  00000+0  25009-3 0  9991
2 40025  97.9582  65.8826 0012044 179.8198 180.3026 14.90291710428369
DTUSAT-2                
1 40030U 14033W   22128.75240855  .00002287  00000+0  24425-3 0  9997
2 40030  97.9356  61.3697 0011624 176.5593 183.5707 14.89765363428243
QB50P2                  
1 40032U 14033Y   22128.52231679  .00001633  00000+0  17626-3 0  9997
2 40032  97.9361  61.1517 0011485 178.3171 181.8087 14.89734601427676
POLYITAN-1              
1 40042U 14033AJ  22128.39194589  .00002877  00000+0  30178-3 0  9999
2 40042  97.9686  66.6292 0014353 174.0648 186.0742 14.90265995427689
TIGRISAT                
1 40043U 14033AK  22128.54152075  .00000841  00000+0  12928-3 0  9993
2 40043  97.6579 319.9556 0057923 286.2065  73.2776 14.74913328423743
AISAT                   
1 40054U 14034B   22128.47053197  .00003102  00000+0  42241-3 0  9997
2 40054  98.3569 298.3044 0013608  84.9712 275.3052 14.79440474423562
CANX-4                  
1 40055U 14034C   22128.39365588  .00000851  00000+0  13332-3 0  9996
2 40055  98.3513 284.0474 0015181 123.1864 237.0802 14.75363009422812
CANX-5                  
1 40056U 14034D   22128.40001360  .00000848  00000+0  13286-3 0  9998
2 40056  98.3512 284.0352 0015217 123.3397 236.9270 14.75357194413624
VELOX-I                 
1 40057U 14034E   22128.73467019  .00002392  00000+0  33138-3 0  9996
2 40057  98.3616 299.7121 0011968  97.6998 262.5530 14.78960297423606
METEOR-M 2              
1 40069U 14037A   22128.74306696  .00000008  00000+0  22679-4 0  9997
2 40069  98.4345 148.3541 0006987  79.1780 281.0178 14.20705789406226
DX1                     
1 40071U 14037C   22128.83497848  .00000796  00000+0  10814-3 0  9991
2 40071  98.4144 355.5936 0009672  84.7645 275.4665 14.81797601423477
UKUBE-1                 
1 40074U 14037F   22128.87510885  .00001934  00000+0  23243-3 0  9990
2 40074  98.3865   7.4669 0005588  61.7264 298.4487 14.85235574424196
FIREBIRD 3              
1 40377U 15003B   22128.51305281  .00018892  00000+0  58581-3 0  9997
2 40377  99.1068 344.5584 0104459 159.9739 200.5641 15.28220806402317
FIREBIRD 4              
1 40378U 15003C   22128.54108660  .00019997  00000+0  61805-3 0  9993
2 40378  99.1073 344.7937 0104397 159.5790 200.9666 15.28311752402325
GRIFEX                  
1 40379U 15003D   22128.49827402  .00012979  00000+0  47054-3 0  9993
2 40379  99.1171 331.0845 0117947 200.6482 158.9962 15.22133281401540
CP10 (EXOCUBE)          
1 40380U 15003E   22128.51512120  .00008216  00000+0  32287-3 0  9997
2 40380  99.1246 324.1333 0124901 223.9430 135.1816 15.19046258401097
DEORBITSAIL             
1 40719U 15032E   22128.44253803  .00002436  00000+0  34208-3 0  9990
2 40719  97.7875   8.1087 0017093 130.4143 229.8563 14.78197043367977
NUDT-PHONESAT           
1 40900U 15049B   22128.82312676  .00024984  00000+0  76358-3 0  9990
2 40900  97.4036 146.6450 0012021  76.1057  48.3777 15.33793724368537
XW-2A                   
1 40903U 15049E   22128.77170087  .00019185  00000+0  32292-3 0  9991
2 40903  97.1826 187.2877 0008525 261.8339 237.3246 15.51719673373109
XW-2C                   
1 40906U 15049H   22128.80286101  .00005419  00000+0  26440-3 0  9996
2 40906  97.4938 132.5455 0015536 132.1085 305.2568 15.18608213366904
XW-2D                   
1 40907U 15049J   22128.78515251  .00006200  00000+0  29709-3 0  9995
2 40907  97.4926 132.4771 0014862 128.3594 357.4934 15.19187990366940
LILACSAT-2              
1 40908U 15049K   22128.74955757  .00002980  00000+0  16032-3 0  9997
2 40908  97.5170 129.7342 0016203 148.7539 314.3529 15.15526727366473
XW-2E                   
1 40909U 15049L   22128.86083513  .00009620  00000+0  41440-3 0  9992
2 40909  97.4668 136.9961 0014338 111.3074   9.0982 15.22704205367388
XW-2F                   
1 40910U 15049M   22128.84086888  .00009453  00000+0  41341-3 0  9994
2 40910  97.4743 136.1013 0015284 112.2894   9.1760 15.22182696367159
XW-2B                   
1 40911U 15049N   22128.79880755  .00006187  00000+0  29740-3 0  9994
2 40911  97.4919 133.1051 0014897 129.2490 309.5656 15.19082343366832
KAITUO 1B               
1 40912U 15049P   22128.85806921  .00011145  00000+0  44576-3 0  9999
2 40912  97.4390 140.4711 0015243  84.3387  38.2502 15.25155651367716
TIANWANG 1A (TW-1A)     
1 40928U 15051D   22128.79762738  .00035668  00000+0  50274-3 0  9997
2 40928  97.0436 151.8784 0009658 158.7099 286.6351 15.56484268372063
LAPAN-A2                
1 40931U 15052B   22128.40299761  .00001154  00000+0  71355-4 0  9998
2 40931   5.9961  94.7744 0013335 322.9370  36.9872 14.76791725357419
LQSAT                   
1 40958U 15057A   22128.81009553  .00000458  00000+0  77970-4 0  9990
2 40958  97.7537 176.7907 0019576  88.4961 271.8478 14.73328897354143
ATHENOXAT 1             
1 41168U 15077C   22128.86350889  .00015539  00000+0  66600-3 0  9995
2 41168  14.9873  23.6649 0009454  39.8115  40.9964 15.19903688354276
GALASSIA                
1 41170U 15077E   22127.37895548  .00017105  00000+0  74573-3 0  9998
2 41170  14.9896  25.1909 0011032  49.1367 310.9909 15.19452688353961
VELOX-II                
1 41171U 15077F   22128.23685337  .00009610  00000+0  46066-3 0  9996
2 41171  14.9913  90.0308 0008265 267.5219  92.4156 15.15128356353506
CHUBUSAT-2              
1 41338U 16012B   22128.44103745  .00002440  00000+0  17887-3 0  9995
2 41338  31.0027 278.6377 0013357 115.4236 244.7783 15.01213158341465
CHUBUSAT-3              
1 41339U 16012C   22128.76852983  .00002136  00000+0  15537-3 0  9998
2 41339  31.0116 273.5043 0013087 126.2513 233.9292 15.01307078341513
HORYU-4                 
1 41340U 16012D   22128.72974447  .00003707  00000+0  26198-3 0  9996
2 41340  31.0042 252.7707 0013322 164.6192 195.4851 15.03040540341748
